[{"OBJECT_NAME":"ONEWEB-0042","OBJECT_ID":"2020-020T","EPOCH":"2026-03-09T22:29:18.366432","MEAN_MOTION":13.11414995,"ECCENTRICITY":0.00017227,"INCLINATION":87.8867,"RA_OF_ASC_NODE":40.7856,"ARG_OF_PERICENTER":82.5034,"MEAN_ANOMALY":277.6289,"EPHEMERIS_TYPE":0,"CLASSIFICATION_TYPE":"U","NORAD_CAT_ID":45441,"ELEMENT_SET_NO":999,"REV_AT_EPOCH":28965,"BSTAR":-0.0012164144,"MEAN_MOTION_DOT":-4.18e-6,"MEAN_MOTION_DDOT":0},{"OBJECT_NAME":"COSMOS 1275 DEB","OBJECT_ID":"1981-053RC","EPOCH":"2026-03-08T02:17:11.079168","MEAN_MOTION":13.50009854,"ECCENTRICITY":0.01973466,"INCLINATION":83.1416,"RA_OF_ASC_NODE":193.3235,"ARG_OF_PERICENTER":107.3279,"MEAN_ANOMALY":254.9556,"EPHEMERIS_TYPE":0,"CLASSIFICATION_TYPE":"U","NORAD_CAT_ID":42140,"ELEMENT_SET_NO":999,"REV_AT_EPOCH":57188,"BSTAR":0.00069469474,"MEAN_MOTION_DOT":5.15e-6,"MEAN_MOTION_DDOT":0}]
